[{"OBJECT_NAME":"COSMOS 2576","OBJECT_ID":"2024-092A","EPOCH":"2026-03-09T19:49:29.705664","MEAN_MOTION":15.27760963,"ECCENTRICITY":0.0005946,"INCLINATION":97.4253,"RA_OF_ASC_NODE":186.0053,"ARG_OF_PERICENTER":159.7731,"MEAN_ANOMALY":200.3745,"EPHEMERIS_TYPE":0,"CLASSIFICATION_TYPE":"U","NORAD_CAT_ID":59773,"ELEMENT_SET_NO":999,"REV_AT_EPOCH":10127,"BSTAR":0.00056283,"MEAN_MOTION_DOT":0.00015211,"MEAN_MOTION_DDOT":0},{"OBJECT_NAME":"STARLINK-35696","OBJECT_ID":"2025-263E","EPOCH":"2026-03-09T03:08:59.387424","MEAN_MOTION":15.27607879,"ECCENTRICITY":0.00015752,"INCLINATION":43.0025,"RA_OF_ASC_NODE":353.837,"ARG_OF_PERICENTER":273.525,"MEAN_ANOMALY":86.5422,"EPHEMERIS_TYPE":0,"CLASSIFICATION_TYPE":"U","NORAD_CAT_ID":66489,"ELEMENT_SET_NO":999,"REV_AT_EPOCH":1881,"BSTAR":0.0020197984,"MEAN_MOTION_DOT":0.00055788,"MEAN_MOTION_DDOT":0}]
